FLOCK 4H-29             
1 66732U 25276BU  26117.18641010  .00007229  00000+0  34716-3 0  9997
2 66732  97.4189 191.4892 0003450 173.7085 186.4193 15.19142552 22675
FLOCK 4H-30             
1 66733U 25276BV  26117.24971480  .00007678  00000+0  36759-3 0  9999
2 66733  97.4250 191.6824 0004685 168.7045 191.4296 15.19223395 22689
FLOCK 4H-31             
1 66734U 25276BW  26117.19433611  .00007372  00000+0  35491-3 0  9996
2 66734  97.4186 191.4771 0003977 172.7361 187.3932 15.19045245 22672
FLOCK 4H-32             
1 66735U 25276BX  26117.18823379  .00007402  00000+0  35526-3 0  9993
2 66735  97.4242 191.5962 0005128 167.2213 192.9153 15.19145696 22672
FLOCK 4H-33             
1 66736U 25276BY  26117.20680361  .00007829  00000+0  36279-3 0  9998
2 66736  97.4238 191.8718 0003834 109.1233 251.0418 15.20350037 22691
FLOCK 4H-34             
1 66737U 25276BZ  26117.17197062  .00007978  00000+0  37478-3 0  9993
2 66737  97.4253 191.7943 0004003 114.8370 245.3282 15.19870311 21933
FLOCK 4H-35             
1 66738U 25276CA  26117.09062983  .00006921  00000+0  32343-3 0  9991
2 66738  97.4213 191.6741 0003542 105.5060 254.6567 15.20101180 21960
FLOCK 4H-36             
1 66739U 25276CB  26117.18241787  .00007396  00000+0  34805-3 0  9995
2 66739  97.4262 191.7982 0004040 123.3033 236.8589 15.19832127 22681
